{"type": "FeatureCollection", "features": [{"type": "Feature", "properties": {"norad_id": 22490, "name": "SCD 1", "group": "resource", "lat": 13.762458007537301, "lon": -31.337266629627216, "alt_km": 740.2160859298428, "timestamp": "2025-12-09T18:55:16.894854+00:00", "meta": {"OBJECT_NAME": "SCD 1", "OBJECT_ID": "1993-009B", "EPOCH": "2025-12-09T14:32:21.489792", "MEAN_MOTION": 14.45995775, "ECCENTRICITY": 0.00417298, "INCLINATION": 24.9704, "RA_OF_ASC_NODE": 298.0332, "ARG_OF_PERICENTER": 291.7211, "MEAN_ANOMALY": 229.7743, "EPHEMERIS_TYPE": 0, "CLASSIFICATION_TYPE": "U", "NORAD_CAT_ID": 22490, "ELEMENT_SET_NO": 999, "REV_AT_EPOCH": 73364, "BSTAR": 0.00017155507, "MEAN_MOTION_DOT": 8.13e-06, "MEAN_MOTION_DDOT": 0}, "tle": {"line1": "1 22490U 93009B   25343.60580428  .00000813  00000+0  17156-3 0  9992", "line2": "2 22490  24.9704 298.0332 0041729 291.7211 229.7743 14.45995775733641"}}, "geometry": {"type": "Point", "coordinates": [-31.337266629627216, 13.762458007537301]}}, {"type": "Feature", "properties": {"norad_id": 25397, "name": "TECHSAT 1B (GO-32)", "group": "resource", "lat": 15.876719021598255, "lon": 149.51342640594007, "alt_km": 811.5490918244714, "timestamp": "2025-12-09T18:55:16.894881+00:00", "meta": {"OBJECT_NAME": "TECHSAT 1B (GO-32)", "OBJECT_ID": "1998-043D", "EPOCH": "2025-12-09T11:24:41.103936", "MEAN_MOTION": 14.24375717, "ECCENTRICITY": 0.00021369, "INCLINATION": 98.9917, "RA_OF_ASC_NODE": 326.6122, "ARG_OF_PERICENTER": 62.6184, "MEAN_ANOMALY": 297.5211, "EPHEMERIS_TYPE": 0, "CLASSIFICATION_TYPE": "U", "NORAD_CAT_ID": 25397, "ELEMENT_SET_NO": 999, "REV_AT_EPOCH": 42432, "BSTAR": 0.00010362921, "MEAN_MOTION_DOT": 1.93e-06, "MEAN_MOTION_DDOT": 0}, "tle": {"line1": "1 25397U 98043D   25343.47547574  .00000193  00000+0  10363-3 0  9998", "line2": "2 25397  98.9917 326.6122 0002136  62.6184 297.5211 14.24375717424325"}}, "geometry": {"type": "Point", "coordinates": [149.51342640594007, 15.876719021598255]}}, {"type": "Feature", "properties": {"norad_id": 25504, "name": "SCD 2", "group": "resource", "lat": 23.707326784306915, "lon": -129.4096807405334, "alt_km": 745.39816922722, "timestamp": "2025-12-09T18:55:16.894897+00:00", "meta": {"OBJECT_NAME": "SCD 2", "OBJECT_ID": "1998-060A", "EPOCH": "2025-12-09T15:35:37.247424", "MEAN_MOTION": 14.45420824, "ECCENTRICITY": 0.00165918, "INCLINATION": 24.9931, "RA_OF_ASC_NODE": 160.9503, "ARG_OF_PERICENTER": 280.547, "MEAN_ANOMALY": 148.6224, "EPHEMERIS_TYPE": 0, "CLASSIFICATION_TYPE": "U", "NORAD_CAT_ID": 25504, "ELEMENT_SET_NO": 999, "REV_AT_EPOCH": 43287, "BSTAR": 0.00012633027, "MEAN_MOTION_DOT": 6.35e-06, "MEAN_MOTION_DDOT": 0}, "tle": {"line1": "1 25504U 98060A   25343.64973666  .00000635  00000+0  12633-3 0  9994", "line2": "2 25504  24.9931 160.9503 0016591 280.5470 148.6224 14.45420824432873"}}, "geometry": {"type": "Point", "coordinates": [-129.4096807405334, 23.707326784306915]}}, {"type": "Feature", "properties": {"norad_id": 25757, "name": "DLR-TUBSAT", "group": "resource", "lat": 80.07839115003975, "lon": -92.35282938566542, "alt_km": 714.9373979349011, "timestamp": "2025-12-09T18:55:16.894910+00:00", "meta": {"OBJECT_NAME": "DLR-TUBSAT", "OBJECT_ID": "1999-029B", "EPOCH": "2025-12-09T11:54:57.937824", "MEAN_MOTION": 14.52355882, "ECCENTRICITY": 0.00137152, "INCLINATION": 98.656, "RA_OF_ASC_NODE": 327.9102, "ARG_OF_PERICENTER": 202.9117, "MEAN_ANOMALY": 157.1467, "EPHEMERIS_TYPE": 0, "CLASSIFICATION_TYPE": "U", "NORAD_CAT_ID": 25757, "ELEMENT_SET_NO": 999, "REV_AT_EPOCH": 40571, "BSTAR": 8.2534654e-05, "MEAN_MOTION_DOT": 2.88e-06, "MEAN_MOTION_DDOT": 0}, "tle": {"line1": "1 25757U 99029B   25343.49650391  .00000288  00000+0  82535-4 0  9993", "line2": "2 25757  98.6560 327.9102 0013715 202.9117 157.1467 14.52355882405716"}}, "geometry": {"type": "Point", "coordinates": [-92.35282938566542, 80.07839115003975]}}, {"type": "Feature", "properties": {"norad_id": 25994, "name": "TERRA", "group": "resource", "lat": 57.05986238438914, "lon": 23.085078836304362, "alt_km": 682.9228903933217, "timestamp": "2025-12-09T18:55:16.894922+00:00", "meta": {"OBJECT_NAME": "TERRA", "OBJECT_ID": "1999-068A", "EPOCH": "2025-12-09T16:05:50.637408", "MEAN_MOTION": 14.60896861, "ECCENTRICITY": 0.00035802, "INCLINATION": 97.9753, "RA_OF_ASC_NODE": 35.4679, "ARG_OF_PERICENTER": 100.4123, "MEAN_ANOMALY": 59.1507, "EPHEMERIS_TYPE": 0, "CLASSIFICATION_TYPE": "U", "NORAD_CAT_ID": 25994, "ELEMENT_SET_NO": 999, "REV_AT_EPOCH": 38193, "BSTAR": 0.00017776316, "MEAN_MOTION_DOT": 8.25e-06, "MEAN_MOTION_DDOT": 0}, "tle": {"line1": "1 25994U 99068A   25343.67072497  .00000825  00000+0  17776-3 0  9995", "line2": "2 25994  97.9753  35.4679 0003580 100.4123  59.1507 14.60896861381932"}}, "geometry": {"type": "Point", "coordinates": [23.085078836304362, 57.05986238438914]}}, {"type": "Feature", "properties": {"norad_id": 27004, "name": "MAROC-TUBSAT", "group": "resource", "lat": -69.38937595068693, "lon": 179.51314479266023, "alt_km": 992.6493691184996, "timestamp": "2025-12-09T18:55:16.894934+00:00", "meta": {"OBJECT_NAME": "MAROC-TUBSAT", "OBJECT_ID": "2001-056D", "EPOCH": "2025-12-09T10:46:29.280000", "MEAN_MOTION": 13.70252668, "ECCENTRICITY": 0.001909, "INCLINATION": 99.7912, "RA_OF_ASC_NODE": 151.8363, "ARG_OF_PERICENTER": 268.8974, "MEAN_ANOMALY": 145.7319, "EPHEMERIS_TYPE": 0, "CLASSIFICATION_TYPE": "U", "NORAD_CAT_ID": 27004, "ELEMENT_SET_NO": 999, "REV_AT_EPOCH": 20020, "BSTAR": 4.7568321e-05, "MEAN_MOTION_DOT": -5e-08, "MEAN_MOTION_DDOT": 0}, "tle": {"line1": "1 27004U 01056D   25343.44895000 -.00000005  00000+0  47568-4 0  9991", "line2": "2 27004  99.7912 151.8363 0019090 268.8974 145.7319 13.70252668200206"}}, "geometry": {"type": "Point", "coordinates": [179.51314479266023, -69.38937595068693]}}, {"type": "Feature", "properties": {"norad_id": 27424, "name": "AQUA", "group": "resource", "lat": -74.25937845160865, "lon": -23.747286954595786, "alt_km": 695.3486325088215, "timestamp": "2025-12-09T18:55:16.894946+00:00", "meta": {"OBJECT_NAME": "AQUA", "OBJECT_ID": "2002-022A", "EPOCH": "2025-12-09T14:52:00.979392", "MEAN_MOTION": 14.61798113, "ECCENTRICITY": 9.695e-05, "INCLINATION": 98.4034, "RA_OF_ASC_NODE": 304.4479, "ARG_OF_PERICENTER": 114.064, "MEAN_ANOMALY": 0.8325, "EPHEMERIS_TYPE": 0, "CLASSIFICATION_TYPE": "U", "NORAD_CAT_ID": 27424, "ELEMENT_SET_NO": 999, "REV_AT_EPOCH": 25557, "BSTAR": 0.00039802489, "MEAN_MOTION_DOT": 1.938e-05, "MEAN_MOTION_DDOT": 0}, "tle": {"line1": "1 27424U 02022A   25343.61945578  .00001938  00000+0  39802-3 0  9992", "line2": "2 27424  98.4034 304.4479 0000969 114.0640   0.8325 14.61798113255573"}}, "geometry": {"type": "Point", "coordinates": [-23.747286954595786, -74.25937845160865]}}, {"type": "Feature", "properties": {"norad_id": 28051, "name": "IRS-P6 (RESOURCESAT-1)", "group": "resource", "lat": 59.248278564844426, "lon": 10.2753090706252, "alt_km": 794.481336937276, "timestamp": "2025-12-09T18:55:16.894957+00:00", "meta": {"OBJECT_NAME": "IRS-P6 (RESOURCESAT-1)", "OBJECT_ID": "2003-046A", "EPOCH": "2025-12-09T15:49:32.230848", "MEAN_MOTION": 14.36073498, "ECCENTRICITY": 0.00638937, "INCLINATION": 98.2175, "RA_OF_ASC_NODE": 24.2088, "ARG_OF_PERICENTER": 189.948, "MEAN_ANOMALY": 284.4682, "EPHEMERIS_TYPE": 0, "CLASSIFICATION_TYPE": "U", "NORAD_CAT_ID": 28051, "ELEMENT_SET_NO": 999, "REV_AT_EPOCH": 15332, "BSTAR": 0.00017684976, "MEAN_MOTION_DOT": 4.86e-06, "MEAN_MOTION_DDOT": 0}, "tle": {"line1": "1 28051U 03046A   25343.65940082  .00000486  00000+0  17685-3 0  9997", "line2": "2 28051  98.2175  24.2088 0063893 189.9480 284.4682 14.36073498153325"}}, "geometry": {"type": "Point", "coordinates": [10.2753090706252, 59.248278564844426]}}, {"type": "Feature", "properties": {"norad_id": 28220, "name": "SHIYAN-1 (SY-1)", "group": "resource", "lat": 37.873960373878056, "lon": 38.95787654500925, "alt_km": 477.08873245451196, "timestamp": "2025-12-09T18:55:16.894969+00:00", "meta": {"OBJECT_NAME": "SHIYAN-1 (SY-1)", "OBJECT_ID": "2004-012A", "EPOCH": "2025-12-09T10:53:45.983616", "MEAN_MOTION": 15.28007061, "ECCENTRICITY": 0.00058493, "INCLINATION": 97.8933, "RA_OF_ASC_NODE": 44.7984, "ARG_OF_PERICENTER": 338.3085, "MEAN_ANOMALY": 21.7905, "EPHEMERIS_TYPE": 0, "CLASSIFICATION_TYPE": "U", "NORAD_CAT_ID": 28220, "ELEMENT_SET_NO": 999, "REV_AT_EPOCH": 18206, "BSTAR": 0.00068257487, "MEAN_MOTION_DOT": 0.00018604, "MEAN_MOTION_DDOT": 0}, "tle": {"line1": "1 28220U 04012A   25343.45400444  .00018604  00000+0  68257-3 0  9992", "line2": "2 28220  97.8933  44.7984 0005849 338.3085  21.7905 15.28007061182068"}}, "geometry": {"type": "Point", "coordinates": [38.95787654500925, 37.873960373878056]}}, {"type": "Feature", "properties": {"norad_id": 28376, "name": "AURA", "group": "resource", "lat": 62.59060025268841, "lon": -82.3862986522548, "alt_km": 683.3114157251784, "timestamp": "2025-12-09T18:55:16.894981+00:00", "meta": {"OBJECT_NAME": "AURA", "OBJECT_ID": "2004-026A", "EPOCH": "2025-12-09T13:41:57.063840", "MEAN_MOTION": 14.60935648, "ECCENTRICITY": 0.00011835, "INCLINATION": 98.3181, "RA_OF_ASC_NODE": 293.7828, "ARG_OF_PERICENTER": 93.6902, "MEAN_ANOMALY": 266.4433, "EPHEMERIS_TYPE": 0, "CLASSIFICATION_TYPE": "U", "NORAD_CAT_ID": 28376, "ELEMENT_SET_NO": 999, "REV_AT_EPOCH": 13852, "BSTAR": 0.00040300469, "MEAN_MOTION_DOT": 1.926e-05, "MEAN_MOTION_DDOT": 0}, "tle": {"line1": "1 28376U 04026A   25343.57079935  .00001926  00000+0  40300-3 0  9997", "line2": "2 28376  98.3181 293.7828 0001183  93.6902 266.4433 14.60935648138522"}}, "geometry": {"type": "Point", "coordinates": [-82.3862986522548, 62.59060025268841]}}]}